BREEZE-M R/B            
1 38746U 12044C   17227.55021923  .00001329  00000-0  87747-4 0  9997
2 38746  49.6993  71.5304 2435184 256.8871  75.1236 10.44452726188741
BREEZE-M DEB            
1 38880U 12044M   17227.78846132  .00072403  76109-5  57892-3 0  9994
2 38880  49.7826 128.6764 0830242 305.3954  47.2096 14.15695116211097
BREEZE-M DEB            
1 38881U 12044N   17227.83338764  .00053407  64088-5  38918-3 0  9992
2 38881  50.4329  79.5922 1069469 237.1187 112.2367 13.64136632206028
BREEZE-M DEB            
1 38884U 12044R   17226.57155038  .00005965  19742-5  18740-3 0  9990
2 38884  50.0173 283.8934 2348577 313.4600  29.2878 10.72719499185288
BREEZE-M DEB            
1 38888U 12044V   17227.49902103  .00009332  33585-5  20666-3 0  9992
2 38888  50.0503 254.9390 1927074 264.6060  73.3292 11.64825375194536
BREEZE-M DEB            
1 38921U 12044BE  17226.95792378  .00027860  40388-5  43608-3 0  9997
2 38921  50.2179 220.8916 1701752 248.7050  92.4220 12.16429825195246
BREEZE-M DEB            
1 38922U 12044BF  17227.20225874  .00013460  34270-5  34088-3 0  9995
2 38922  50.0669 142.1638 2204702  56.4349 322.7919 11.04742979188773
BREEZE-M DEB            
1 38926U 12044BK  17227.06937977  .00028039  51435-5  54811-3 0  9993
2 38926  49.9980  79.6641 1732870  51.2668 323.0729 12.06944470198302
BREEZE-M DEB            
1 38948U 12044CH  17226.89655031  .00023091  39218-5  47034-3 0  9992
2 38948  50.0820 171.4099 1827392 324.2684  24.8273 11.86260856196107
BREEZE-M DEB            
1 38957U 12044CQ  17201.81687039  .00035207  42224-5  68800-3 0  9997
2 38957  50.0260 355.9571 1883250 184.6829 173.3818 11.74788922190041
BREEZE-M DEB            
1 38960U 12044CT  17226.65491053  .00028374  44219-5  62858-3 0  9999
2 38960  50.1281  20.5018 2000750 143.7369 231.7371 11.48532091191120
BREEZE-M DEB            
1 38961U 12044CU  17226.18115305  .00024094  39534-5  47880-3 0  9998
2 38961  50.1017 164.4600 1825557 326.0021  23.5903 11.86960449196300
BREEZE-M DEB            
1 38971U 12044DE  17226.85949450  .00033607  48245-5  62882-3 0  9997
2 38971  50.0838 107.0993 1718196  13.5594 350.5951 12.10506414197091
